[{"OBJECT_NAME":"STARLINK-30279","OBJECT_ID":"2023-144X","EPOCH":"2026-03-20T10:16:29.616384","MEAN_MOTION":15.27596595,"ECCENTRICITY":6.85e-5,"INCLINATION":42.997,"RA_OF_ASC_NODE":224.2134,"ARG_OF_PERICENTER":85.498,"MEAN_ANOMALY":274.595,"EPHEMERIS_TYPE":0,"CLASSIFICATION_TYPE":"U","NORAD_CAT_ID":57885,"ELEMENT_SET_NO":999,"REV_AT_EPOCH":13922,"BSTAR":-0.00015251,"MEAN_MOTION_DOT":-4.458e-5,"MEAN_MOTION_DDOT":0},{"OBJECT_NAME":"STARLINK-30465","OBJECT_ID":"2023-146A","EPOCH":"2026-03-20T11:57:30.127104","MEAN_MOTION":15.26746549,"ECCENTRICITY":0.0001159,"INCLINATION":43.0003,"RA_OF_ASC_NODE":252.7891,"ARG_OF_PERICENTER":270.32,"MEAN_ANOMALY":89.7519,"EPHEMERIS_TYPE":0,"CLASSIFICATION_TYPE":"U","NORAD_CAT_ID":57891,"ELEMENT_SET_NO":999,"REV_AT_EPOCH":13871,"BSTAR":7.6885e-5,"MEAN_MOTION_DOT":1.804e-5,"MEAN_MOTION_DDOT":0},{"OBJECT_NAME":"STARLINK-30470","OBJECT_ID":"2023-146B","EPOCH":"2026-03-20T12:02:03.396480","MEAN_MOTION":15.26725921,"ECCENTRICITY":0.0002292,"INCLINATION":43.0048,"RA_OF_ASC_NODE":252.8117,"ARG_OF_PERICENTER":274.3883,"MEAN_ANOMALY":85.6707,"EPHEMERIS_TYPE":0,"CLASSIFICATION_TYPE":"U","NORAD_CAT_ID":57892,"ELEMENT_SET_NO":999,"REV_AT_EPOCH":13871,"BSTAR":0.00018724,"MEAN_MOTION_DOT":4.764e-5,"MEAN_MOTION_DDOT":0},{"OBJECT_NAME":"STARLINK-30473","OBJECT_ID":"2023-146C","EPOCH":"2026-03-20T12:00:00.998784","MEAN_MOTION":15.26747476,"ECCENTRICITY":0.0001431,"INCLINATION":43.0001,"RA_OF_ASC_NODE":253.1269,"ARG_OF_PERICENTER":284.6956,"MEAN_ANOMALY":272.4611,"EPHEMERIS_TYPE":0,"CLASSIFICATION_TYPE":"U","NORAD_CAT_ID":57893,"ELEMENT_SET_NO":999,"REV_AT_EPOCH":566,"BSTAR":0.00093194,"MEAN_MOTION_DOT":0.00024828,"MEAN_MOTION_DDOT":0},{"OBJECT_NAME":"STARLINK-30443","OBJECT_ID":"2023-146D","EPOCH":"2026-03-20T12:00:00.998784","MEAN_MOTION":15.26733632,"ECCENTRICITY":0.0001082,"INCLINATION":42.9996,"RA_OF_ASC_NODE":253.0195,"ARG_OF_PERICENTER":276.4468,"MEAN_ANOMALY":351.2405,"EPHEMERIS_TYPE":0,"CLASSIFICATION_TYPE":"U","NORAD_CAT_ID":57894,"ELEMENT_SET_NO":999,"REV_AT_EPOCH":576,"BSTAR":0.00075494,"MEAN_MOTION_DOT":0.00020041,"MEAN_MOTION_DDOT":0},{"OBJECT_NAME":"STARLINK-30467","OBJECT_ID":"2023-146E","EPOCH":"2026-03-20T11:54:57.441888","MEAN_MOTION":15.26743791,"ECCENTRICITY":0.0001206,"INCLINATION":43.0008,"RA_OF_ASC_NODE":252.776,"ARG_OF_PERICENTER":284.8449,"MEAN_ANOMALY":75.2268,"EPHEMERIS_TYPE":0,"CLASSIFICATION_TYPE":"U","NORAD_CAT_ID":57895,"ELEMENT_SET_NO":999,"REV_AT_EPOCH":13871,"BSTAR":3.895e-5,"MEAN_MOTION_DOT":7.85e-6,"MEAN_MOTION_DDOT":0},{"OBJECT_NAME":"STARLINK-30469","OBJECT_ID":"2023-146F","EPOCH":"2026-03-20T12:00:00.998784","MEAN_MOTION":15.26736714,"ECCENTRICITY":8.56e-5,"INCLINATION":42.9997,"RA_OF_ASC_NODE":253.0746,"ARG_OF_PERICENTER":270.6499,"MEAN_ANOMALY":333.6067,"EPHEMERIS_TYPE":0,"CLASSIFICATION_TYPE":"U","NORAD_CAT_ID":57896,"ELEMENT_SET_NO":999,"REV_AT_EPOCH":571,"BSTAR":0.00074992,"MEAN_MOTION_DOT":0.00019908,"MEAN_MOTION_DDOT":0},{"OBJECT_NAME":"STARLINK-30474","OBJECT_ID":"2023-146G","EPOCH":"2026-03-20T12:03:48.794112","MEAN_MOTION":15.26748863,"ECCENTRICITY":0.0001202,"INCLINATION":43.0001,"RA_OF_ASC_NODE":252.8236,"ARG_OF_PERICENTER":278.9588,"MEAN_ANOMALY":81.1128,"EPHEMERIS_TYPE":0,"CLASSIFICATION_TYPE":"U","NORAD_CAT_ID":57897,"ELEMENT_SET_NO":999,"REV_AT_EPOCH":13871,"BSTAR":2.2045e-5,"MEAN_MOTION_DOT":3.32e-6,"MEAN_MOTION_DDOT":0},{"OBJECT_NAME":"STARLINK-30479","OBJECT_ID":"2023-146H","EPOCH":"2026-03-20T12:00:00.998784","MEAN_MOTION":15.26738551,"ECCENTRICITY":0.0001105,"INCLINATION":42.9992,"RA_OF_ASC_NODE":253.0698,"ARG_OF_PERICENTER":277.9205,"MEAN_ANOMALY":328.3276,"EPHEMERIS_TYPE":0,"CLASSIFICATION_TYPE":"U","NORAD_CAT_ID":57898,"ELEMENT_SET_NO":999,"REV_AT_EPOCH":571,"BSTAR":0.00069631,"MEAN_MOTION_DOT":0.00018464,"MEAN_MOTION_DDOT":0},{"OBJECT_NAME":"STARLINK-30481","OBJECT_ID":"2023-146J","EPOCH":"2026-03-20T12:00:00.998784","MEAN_MOTION":15.26718191,"ECCENTRICITY":9.49e-5,"INCLINATION":42.9989,"RA_OF_ASC_NODE":252.9025,"ARG_OF_PERICENTER":277.1428,"MEAN_ANOMALY":40.0762,"EPHEMERIS_TYPE":0,"CLASSIFICATION_TYPE":"U","NORAD_CAT_ID":57899,"ELEMENT_SET_NO":999,"REV_AT_EPOCH":576,"BSTAR":0.00083792,"MEAN_MOTION_DOT":0.00022269,"MEAN_MOTION_DDOT":0},{"OBJECT_NAME":"STARLINK-30457","OBJECT_ID":"2023-146K","EPOCH":"2026-03-20T12:00:00.998784","MEAN_MOTION":15.25300383,"ECCENTRICITY":7.21e-5,"INCLINATION":43.0006,"RA_OF_ASC_NODE":253.3478,"ARG_OF_PERICENTER":333.5944,"MEAN_ANOMALY":152.7312,"EPHEMERIS_TYPE":0,"CLASSIFICATION_TYPE":"U","NORAD_CAT_ID":57900,"ELEMENT_SET_NO":999,"REV_AT_EPOCH":552,"BSTAR":0.070238,"MEAN_MOTION_DOT":0.02000945,"MEAN_MOTION_DDOT":0},{"OBJECT_NAME":"STARLINK-30472","OBJECT_ID":"2023-146L","EPOCH":"2026-03-20T12:21:13.757184","MEAN_MOTION":15.27577641,"ECCENTRICITY":0.0001059,"INCLINATION":43.0009,"RA_OF_ASC_NODE":249.4896,"ARG_OF_PERICENTER":262.5233,"MEAN_ANOMALY":97.5499,"EPHEMERIS_TYPE":0,"CLASSIFICATION_TYPE":"U","NORAD_CAT_ID":57901,"ELEMENT_SET_NO":999,"REV_AT_EPOCH":13769,"BSTAR":3.2202e-5,"MEAN_MOTION_DOT":6.24e-6,"MEAN_MOTION_DDOT":0},{"OBJECT_NAME":"STARLINK-30462","OBJECT_ID":"2023-146M","EPOCH":"2026-03-20T12:00:00.998784","MEAN_MOTION":15.26720248,"ECCENTRICITY":0.0001475,"INCLINATION":42.9997,"RA_OF_ASC_NODE":253.142,"ARG_OF_PERICENTER":281.0414,"MEAN_ANOMALY":293.71,"EPHEMERIS_TYPE":0,"CLASSIFICATION_TYPE":"U","NORAD_CAT_ID":57902,"ELEMENT_SET_NO":999,"REV_AT_EPOCH":562,"BSTAR":0.00093978,"MEAN_MOTION_DOT":0.00025019,"MEAN_MOTION_DDOT":0},{"OBJECT_NAME":"STARLINK-30449","OBJECT_ID":"2023-146N","EPOCH":"2026-03-20T12:00:00.998784","MEAN_MOTION":15.26713323,"ECCENTRICITY":0.0001375,"INCLINATION":43.0023,"RA_OF_ASC_NODE":252.7512,"ARG_OF_PERICENTER":281.9882,"MEAN_ANOMALY":95.4614,"EPHEMERIS_TYPE":0,"CLASSIFICATION_TYPE":"U","NORAD_CAT_ID":57903,"ELEMENT_SET_NO":999,"REV_AT_EPOCH":566,"BSTAR":0.0010739,"MEAN_MOTION_DOT":0.00028635,"MEAN_MOTION_DDOT":0},{"OBJECT_NAME":"STARLINK-30466","OBJECT_ID":"2023-146P","EPOCH":"2026-03-20T12:00:00.998784","MEAN_MOTION":15.26731819,"ECCENTRICITY":0.0001257,"INCLINATION":42.9993,"RA_OF_ASC_NODE":253.0335,"ARG_OF_PERICENTER":279.3036,"MEAN_ANOMALY":341.5123,"EPHEMERIS_TYPE":0,"CLASSIFICATION_TYPE":"U","NORAD_CAT_ID":57904,"ELEMENT_SET_NO":999,"REV_AT_EPOCH":577,"BSTAR":0.00081937,"MEAN_MOTION_DOT":0.00021778,"MEAN_MOTION_DDOT":0},{"OBJECT_NAME":"STARLINK-30428","OBJECT_ID":"2023-146R","EPOCH":"2026-03-20T12:00:00.998784","MEAN_MOTION":15.26735761,"ECCENTRICITY":0.000141,"INCLINATION":43.0019,"RA_OF_ASC_NODE":253.1748,"ARG_OF_PERICENTER":274.8883,"MEAN_ANOMALY":285.9855,"EPHEMERIS_TYPE":0,"CLASSIFICATION_TYPE":"U","NORAD_CAT_ID":57906,"ELEMENT_SET_NO":999,"REV_AT_EPOCH":577,"BSTAR":0.00040103,"MEAN_MOTION_DOT":0.00010511,"MEAN_MOTION_DDOT":0},{"OBJECT_NAME":"STARLINK-30482","OBJECT_ID":"2023-146S","EPOCH":"2026-03-20T12:00:00.998784","MEAN_MOTION":15.2341744,"ECCENTRICITY":0.0001353,"INCLINATION":42.9994,"RA_OF_ASC_NODE":253.5291,"ARG_OF_PERICENTER":299.1348,"MEAN_ANOMALY":108.843,"EPHEMERIS_TYPE":0,"CLASSIFICATION_TYPE":"U","NORAD_CAT_ID":57907,"ELEMENT_SET_NO":999,"REV_AT_EPOCH":556,"BSTAR":0.083919,"MEAN_MOTION_DOT":0.02249995,"MEAN_MOTION_DDOT":0}]
