STARLINK-30279          
1 57885U 23144X   26079.42812056 -.00004458  00000+0 -15251-3 0  9998
2 57885  42.9970 224.2134 0000685  85.4980 274.5950 15.27596595139220
STARLINK-30465          
1 57891U 23146A   26079.49826536  .00001804  00000+0  76885-4 0  9993
2 57891  43.0003 252.7891 0001159 270.3200  89.7519 15.26746549138714
STARLINK-30470          
1 57892U 23146B   26079.50142820  .00004764  00000+0  18724-3 0  9998
2 57892  43.0048 252.8117 0002292 274.3883  85.6707 15.26725921138711
STARLINK-30473          
1 57893U 23146C   26079.50001156  .00024828  00000+0  93194-3 0  9992
2 57893  43.0001 253.1269 0001431 284.6956 272.4611 15.26747476  5668
STARLINK-30443          
1 57894U 23146D   26079.50001156  .00020041  00000+0  75494-3 0  9999
2 57894  42.9996 253.0195 0001082 276.4468 351.2405 15.26733632  5763
STARLINK-30467          
1 57895U 23146E   26079.49649817  .00000785  00000+0  38950-4 0  9990
2 57895  43.0008 252.7760 0001206 284.8449  75.2268 15.26743791138713
STARLINK-30469          
1 57896U 23146F   26079.50001156  .00019908  00000+0  74992-3 0  9993
2 57896  42.9997 253.0746 0000856 270.6499 333.6067 15.26736714  5713
STARLINK-30474          
1 57897U 23146G   26079.50264808  .00000332  00000+0  22045-4 0  9993
2 57897  43.0001 252.8236 0001202 278.9588  81.1128 15.26748863138717
STARLINK-30479          
1 57898U 23146H   26079.50001156  .00018464  00000+0  69631-3 0  9995
2 57898  42.9992 253.0698 0001105 277.9205 328.3276 15.26738551  5713
STARLINK-30481          
1 57899U 23146J   26079.50001156  .00022269  00000+0  83792-3 0  9998
2 57899  42.9989 252.9025 0000949 277.1428  40.0762 15.26718191  5767
STARLINK-30457          
1 57900U 23146K   26079.50001156  .02000945  00000+0  70238-1 0  9999
2 57900  43.0006 253.3478 0000721 333.5944 152.7312 15.25300383  5522
STARLINK-30472          
1 57901U 23146L   26079.51474256  .00000624  00000+0  32202-4 0  9990
2 57901  43.0009 249.4896 0001059 262.5233  97.5499 15.27577641137694
STARLINK-30462          
1 57902U 23146M   26079.50001156  .00025019  00000+0  93978-3 0  9996
2 57902  42.9997 253.1420 0001475 281.0414 293.7100 15.26720248  5621
STARLINK-30449          
1 57903U 23146N   26079.50001156  .00028635  00000+0  10739-2 0  9997
2 57903  43.0023 252.7512 0001375 281.9882  95.4614 15.26713323  5665
STARLINK-30466          
1 57904U 23146P   26079.50001156  .00021778  00000+0  81937-3 0  9998
2 57904  42.9993 253.0335 0001257 279.3036 341.5123 15.26731819  5770
STARLINK-30428          
1 57906U 23146R   26079.50001156  .00010511  00000+0  40103-3 0  9993
2 57906  43.0019 253.1748 0001410 274.8883 285.9855 15.26735761  5776
STARLINK-30482          
1 57907U 23146S   26079.50001156  .02249995  00000+0  83919-1 0  9996
2 57907  42.9994 253.5291 0001353 299.1348 108.8430 15.23417440  5563
